cbsnmcnm,cntyname,pha,state,county,zip,fmr0,fmr1,fmr2,fmr3,fmr4
"Los Angeles-Long Beach-Santa Ana, CA MSA",Los Angeles County,The Housing Authority of the City of Long Beach,06,037,90802,750,910,1190,1630,1830
"Los Angeles-Long Beach-Santa Ana, CA MSA",Los Angeles County,The Housing Authority of the City of Long Beach,06,037,90803,960,1170,1530,2100,2350
"Los Angeles-Long Beach-Santa Ana, CA MSA",Los Angeles County,The Housing Authority of the City of Long Beach,06,037,90804,830,1010,1320,1810,2030
"Los Angeles-Long Beach-Santa Ana, CA MSA",Los Angeles County,The Housing Authority of the City of Long Beach,06,037,90805,780,960,1250,1710,1920
"Los Angeles-Long Beach-Santa Ana, CA MSA",Los Angeles County,The Housing Authority of the City of Long Beach,06,037,90806,760,930,1210,1660,1860
"Los Angeles-Long Beach-Santa Ana, CA MSA",Los Angeles County,The Housing Authority of the City of Long Beach,06,037,90807,880,1070,1400,1920,2150
"Los Angeles-Long Beach-Santa Ana, CA MSA",Los Angeles County,The Housing Authority of the City of Long Beach,06,037,90808,1030,1270,1650,2260,2530
"Los Angeles-Long Beach-Santa Ana, CA MSA",Los Angeles County,The Housing Authority of the City of Long Beach,06,037,90810,750,920,1200,1640,1840
"Los Angeles-Long Beach-Santa Ana, CA MSA",Los Angeles County,The Housing Authority of the City of Long Beach,06,037,90813,700,860,1120,1540,1720
"Los Angeles-Long Beach-Santa Ana, CA MSA",Los Angeles County,The Housing Authority of the City of Long Beach,06,037,90815,1120,1370,1790,2450,2750
"Los Angeles-Long Beach-Santa Ana, CA MSA",Los Angeles County,The Housing Authority of the City of Long Beach,06,037,90822,880,1070,1400,1920,2150
"Chicago-Joliet-Naperville, IL-IN-WI MSA",Cook County,The Housing Authority of the County of Cook,17,031,60004,910,1030,1220,1560,1810
"Chicago-Joliet-Naperville, IL-IN-WI MSA",Cook County,The Housing Authority of the County of Cook,17,031,60005,820,940,1110,1420,1650
"Chicago-Joliet-Naperville, IL-IN-WI MSA",Cook County,The Housing Authority of the County of Cook,17,031,60006,760,870,1030,1310,1530
"Chicago-Joliet-Naperville, IL-IN-WI MSA",Cook County,The Housing Authority of the County of Cook,17,031,60007,800,910,1080,1380,1610
"Chicago-Joliet-Naperville, IL-IN-WI MSA",Cook County,The Housing Authority of the County of Cook,17,031,60008,860,980,1160,1480,1720
"Chicago-Joliet-Naperville, IL-IN-WI MSA",Cook County,The Housing Authority of the County of Cook,17,031,60010,1120,1270,1510,1920,2240
"Chicago-Joliet-Naperville, IL-IN-WI MSA",Cook County,The Housing Authority of the County of Cook,17,031,60011,760,870,1030,1310,1530
"Chicago-Joliet-Naperville, IL-IN-WI MSA",Cook County,The Housing Authority of the County of Cook,17,031,60016,790,900,1070,1360,1590
"Chicago-Joliet-Naperville, IL-IN-WI MSA",Cook County,The Housing Authority of the County of Cook,17,031,60018,680,770,910,1160,1350
"Chicago-Joliet-Naperville, IL-IN-WI MSA",Cook County,The Housing Authority of the County of Cook,17,031,60022,1020,1160,1380,1760,2050
"Chicago-Joliet-Naperville, IL-IN-WI MSA",Cook County,The Housing Authority of the County of Cook,17,031,60025,870,990,1170,1490,1740
"Chicago-Joliet-Naperville, IL-IN-WI MSA",Cook County,The Housing Authority of the County of Cook,17,031,60026,1010,1150,1360,1730,2020
"Chicago-Joliet-Naperville, IL-IN-WI MSA",Cook County,The Housing Authority of the County of Cook,17,031,60029,760,870,1030,1310,1530
"Chicago-Joliet-Naperville, IL-IN-WI MSA",Cook County,The Housing Authority of the County of Cook,17,031,60043,760,870,1030,1310,1530
"Chicago-Joliet-Naperville, IL-IN-WI MSA",Cook County,The Housing Authority of the County of Cook,17,031,60053,890,1010,1200,1530,1780
"Chicago-Joliet-Naperville, IL-IN-WI MSA",Cook County,The Housing Authority of the County of Cook,17,031,60056,760,860,1020,1300,1520
"Chicago-Joliet-Naperville, IL-IN-WI MSA",Cook County,The Housing Authority of the County of Cook,17,031,60062,970,1100,1300,1660,1930
"Chicago-Joliet-Naperville, IL-IN-WI MSA",Cook County,The Housing Authority of the County of Cook,17,031,60065,760,870,1030,1310,1530
"Chicago-Joliet-Naperville, IL-IN-WI MSA",Cook County,The Housing Authority of the County of Cook,17,031,60067,910,1030,1220,1560,1810
"Chicago-Joliet-Naperville, IL-IN-WI MSA",Cook County,The Housing Authority of the County of Cook,17,031,60068,940,1060,1260,1610,1870
"Chicago-Joliet-Naperville, IL-IN-WI MSA",Cook County,The Housing Authority of the County of Cook,17,031,60070,790,900,1070,1360,1590
"Chicago-Joliet-Naperville, IL-IN-WI MSA",Cook County,The Housing Authority of the County of Cook,17,031,60074,810,920,1090,1390,1620
"Chicago-Joliet-Naperville, IL-IN-WI MSA",Cook County,The Housing Authority of the County of Cook,17,031,60076,920,1050,1240,1580,1840
"Chicago-Joliet-Naperville, IL-IN-WI MSA",Cook County,The Housing Authority of the County of Cook,17,031,60077,850,970,1150,1470,1710
"Chicago-Joliet-Naperville, IL-IN-WI MSA",Cook County,The Housing Authority of the County of Cook,17,031,60089,1020,1160,1380,1760,2050
"Chicago-Joliet-Naperville, IL-IN-WI MSA",Cook County,The Housing Authority of the County of Cook,17,031,60090,820,940,1110,1420,1650
"Chicago-Joliet-Naperville, IL-IN-WI MSA",Cook County,The Housing Authority of the County of Cook,17,031,60091,1140,1300,1540,1960,2290
"Chicago-Joliet-Naperville, IL-IN-WI MSA",Cook County,The Housing Authority of the County of Cook,17,031,60093,1110,1260,1490,1900,2210
"Chicago-Joliet-Naperville, IL-IN-WI MSA",Cook County,The Housing Authority of the County of Cook,17,031,60103,970,1100,1300,1660,1930
"Chicago-Joliet-Naperville, IL-IN-WI MSA",Cook County,The Housing Authority of the County of Cook,17,031,60104,760,860,1020,1300,1520
"Chicago-Joliet-Naperville, IL-IN-WI MSA",Cook County,The Housing Authority of the County of Cook,17,031,60107,1140,1300,1540,1960,2290
"Chicago-Joliet-Naperville, IL-IN-WI MSA",Cook County,The Housing Authority of the County of Cook,17,031,60120,760,870,1030,1310,1530
"Chicago-Joliet-Naperville, IL-IN-WI MSA",Cook County,The Housing Authority of the County of Cook,17,031,60130,740,840,1000,1270,1490
"Chicago-Joliet-Naperville, IL-IN-WI MSA",Cook County,The Housing Authority of the County of Cook,17,031,60131,650,730,870,1110,1290
"Chicago-Joliet-Naperville, IL-IN-WI MSA",Cook County,The Housing Authority of the County of Cook,17,031,60133,810,920,1090,1390,1620
"Chicago-Joliet-Naperville, IL-IN-WI MSA",Cook County,The Housing Authority of the County of Cook,17,031,60141,760,870,1030,1310,1530
"Chicago-Joliet-Naperville, IL-IN-WI MSA",Cook County,The Housing Authority of the County of Cook,17,031,60153,760,870,1030,1310,1530
"Chicago-Joliet-Naperville, IL-IN-WI MSA",Cook County,The Housing Authority of the County of Cook,17,031,60154,1030,1170,1390,1770,2070
"Chicago-Joliet-Naperville, IL-IN-WI MSA",Cook County,The Housing Authority of the County of Cook,17,031,60155,650,730,870,1110,1290
"Chicago-Joliet-Naperville, IL-IN-WI MSA",Cook County,The Housing Authority of the County of Cook,17,031,60160,680,770,910,1160,1350
"Chicago-Joliet-Naperville, IL-IN-WI MSA",Cook County,The Housing Authority of the County of Cook,17,031,60161,760,870,1030,1310,1530
"Chicago-Joliet-Naperville, IL-IN-WI MSA",Cook County,The Housing Authority of the County of Cook,17,031,60162,670,760,900,1150,1340
"Chicago-Joliet-Naperville, IL-IN-WI MSA",Cook County,The Housing Authority of the County of Cook,17,031,60163,790,890,1060,1350,1580
"Chicago-Joliet-Naperville, IL-IN-WI MSA",Cook County,The Housing Authority of the County of Cook,17,031,60164,650,740,880,1120,1310
"Chicago-Joliet-Naperville, IL-IN-WI MSA",Cook County,The Housing Authority of the County of Cook,17,031,60165,720,820,970,1240,1440
"Chicago-Joliet-Naperville, IL-IN-WI MSA",Cook County,The Housing Authority of the County of Cook,17,031,60168,760,870,1030,1310,1530
"Chicago-Joliet-Naperville, IL-IN-WI MSA",Cook County,The Housing Authority of the County of Cook,17,031,60169,830,940,1120,1430,1660
"Chicago-Joliet-Naperville, IL-IN-WI MSA",Cook County,The Housing Authority of the County of Cook,17,031,60171,690,780,930,1190,1380
"Chicago-Joliet-Naperville, IL-IN-WI MSA",Cook County,The Housing Authority of the County of Cook,17,031,60172,820,940,1110,1420,1650
"Chicago-Joliet-Naperville, IL-IN-WI MSA",Cook County,The Housing Authority of the County of Cook,17,031,60173,960,1090,1290,1640,1920
"Chicago-Joliet-Naperville, IL-IN-WI MSA",Cook County,The Housing Authority of the County of Cook,17,031,60176,710,810,960,1220,1430
"Chicago-Joliet-Naperville, IL-IN-WI MSA",Cook County,The Housing Authority of the County of Cook,17,031,60192,1140,1300,1540,1960,2290
"Chicago-Joliet-Naperville, IL-IN-WI MSA",Cook County,The Housing Authority of the County of Cook,17,031,60193,940,1070,1270,1620,1890
"Chicago-Joliet-Naperville, IL-IN-WI MSA",Cook County,The Housing Authority of the County of Cook,17,031,60194,950,1080,1280,1630,1900
"Chicago-Joliet-Naperville, IL-IN-WI MSA",Cook County,The Housing Authority of the County of Cook,17,031,60195,970,1100,1310,1670,1950
"Chicago-Joliet-Naperville, IL-IN-WI MSA",Cook County,The Housing Authority of the County of Cook,17,031,60201,980,1110,1320,1680,1960
"Chicago-Joliet-Naperville, IL-IN-WI MSA",Cook County,The Housing Authority of the County of Cook,17,031,60202,850,970,1150,1470,1710
"Chicago-Joliet-Naperville, IL-IN-WI MSA",Cook County,The Housing Authority of the County of Cook,17,031,60203,1140,1300,1540,1960,2290
"Chicago-Joliet-Naperville, IL-IN-WI MSA",Cook County,The Housing Authority of the County of Cook,17,031,60301,940,1070,1270,1620,1890
"Chicago-Joliet-Naperville, IL-IN-WI MSA",Cook County,The Housing Authority of the County of Cook,17,031,60302,770,880,1040,1330,1550
"Chicago-Joliet-Naperville, IL-IN-WI MSA",Cook County,The Housing Authority of the County of Cook,17,031,60303,760,870,1030,1310,1530
"Chicago-Joliet-Naperville, IL-IN-WI MSA",Cook County,The Housing Authority of the County of Cook,17,031,60304,730,830,980,1250,1460
"Chicago-Joliet-Naperville, IL-IN-WI MSA",Cook County,The Housing Authority of the County of Cook,17,031,60305,760,860,1020,1300,1520
"Chicago-Joliet-Naperville, IL-IN-WI MSA",Cook County,The Housing Authority of the County of Cook,17,031,60402,710,800,950,1210,1410
"Chicago-Joliet-Naperville, IL-IN-WI MSA",Cook County,The Housing Authority of the County of Cook,17,031,60406,650,740,880,1120,1310
"Chicago-Joliet-Naperville, IL-IN-WI MSA",Cook County,The Housing Authority of the County of Cook,17,031,60409,710,810,960,1220,1430
"Chicago-Joliet-Naperville, IL-IN-WI MSA",Cook County,The Housing Authority of the County of Cook,17,031,60411,730,830,980,1250,1460
"Chicago-Joliet-Naperville, IL-IN-WI MSA",Cook County,The Housing Authority of the County of Cook,17,031,60412,760,870,1030,1310,1530
"Chicago-Joliet-Naperville, IL-IN-WI MSA",Cook County,The Housing Authority of the County of Cook,17,031,60415,710,800,950,1210,1410
"Chicago-Joliet-Naperville, IL-IN-WI MSA",Cook County,The Housing Authority of the County of Cook,17,031,60419,820,940,1110,1420,1650
"Chicago-Joliet-Naperville, IL-IN-WI MSA",Cook County,The Housing Authority of the County of Cook,17,031,60422,1140,1300,1540,1960,2290
"Chicago-Joliet-Naperville, IL-IN-WI MSA",Cook County,The Housing Authority of the County of Cook,17,031,60425,740,840,1000,1270,1490
"Chicago-Joliet-Naperville, IL-IN-WI MSA",Cook County,The Housing Authority of the County of Cook,17,031,60426,770,880,1040,1330,1550
"Chicago-Joliet-Naperville, IL-IN-WI MSA",Cook County,The Housing Authority of the County of Cook,17,031,60428,980,1110,1320,1680,1960
"Chicago-Joliet-Naperville, IL-IN-WI MSA",Cook County,The Housing Authority of the County of Cook,17,031,60429,970,1100,1310,1670,1950
"Chicago-Joliet-Naperville, IL-IN-WI MSA",Cook County,The Housing Authority of the County of Cook,17,031,60430,720,820,970,1240,1440
"Chicago-Joliet-Naperville, IL-IN-WI MSA",Cook County,The Housing Authority of the County of Cook,17,031,60438,710,810,960,1220,1430
"Chicago-Joliet-Naperville, IL-IN-WI MSA",Cook County,The Housing Authority of the County of Cook,17,031,60439,680,780,920,1170,1370
"Chicago-Joliet-Naperville, IL-IN-WI MSA",Cook County,The Housing Authority of the County of Cook,17,031,60443,950,1080,1280,1630,1900
"Chicago-Joliet-Naperville, IL-IN-WI MSA",Cook County,The Housing Authority of the County of Cook,17,031,60445,710,800,950,1210,1410
"Chicago-Joliet-Naperville, IL-IN-WI MSA",Cook County,The Housing Authority of the County of Cook,17,031,60452,740,840,1000,1270,1490
"Chicago-Joliet-Naperville, IL-IN-WI MSA",Cook County,The Housing Authority of the County of Cook,17,031,60453,740,840,990,1260,1470
"Chicago-Joliet-Naperville, IL-IN-WI MSA",Cook County,The Housing Authority of the County of Cook,17,031,60454,760,870,1030,1310,1530
"Chicago-Joliet-Naperville, IL-IN-WI MSA",Cook County,The Housing Authority of the County of Cook,17,031,60455,680,780,920,1170,1370
"Chicago-Joliet-Naperville, IL-IN-WI MSA",Cook County,The Housing Authority of the County of Cook,17,031,60456,480,540,640,820,950
"Chicago-Joliet-Naperville, IL-IN-WI MSA",Cook County,The Housing Authority of the County of Cook,17,031,60457,690,780,930,1190,1380
"Chicago-Joliet-Naperville, IL-IN-WI MSA",Cook County,The Housing Authority of the County of Cook,17,031,60458,750,850,1010,1290,1500
"Chicago-Joliet-Naperville, IL-IN-WI MSA",Cook County,The Housing Authority of the County of Cook,17,031,60459,750,850,1010,1290,1500
"Chicago-Joliet-Naperville, IL-IN-WI MSA",Cook County,The Housing Authority of the County of Cook,17,031,60461,760,870,1030,1310,1530
"Chicago-Joliet-Naperville, IL-IN-WI MSA",Cook County,The Housing Authority of the County of Cook,17,031,60462,790,890,1060,1350,1580
"Chicago-Joliet-Naperville, IL-IN-WI MSA",Cook County,The Housing Authority of the County of Cook,17,031,60463,1140,1300,1540,1960,2290
"Chicago-Joliet-Naperville, IL-IN-WI MSA",Cook County,The Housing Authority of the County of Cook,17,031,60464,1140,1300,1540,1960,2290
"Chicago-Joliet-Naperville, IL-IN-WI MSA",Cook County,The Housing Authority of the County of Cook,17,031,60465,760,860,1020,1300,1520
"Chicago-Joliet-Naperville, IL-IN-WI MSA",Cook County,The Housing Authority of the County of Cook,17,031,60466,750,850,1010,1290,1500
"Chicago-Joliet-Naperville, IL-IN-WI MSA",Cook County,The Housing Authority of the County of Cook,17,031,60467,1140,1300,1540,1960,2290
"Chicago-Joliet-Naperville, IL-IN-WI MSA",Cook County,The Housing Authority of the County of Cook,17,031,60469,840,950,1130,1440,1680
"Chicago-Joliet-Naperville, IL-IN-WI MSA",Cook County,The Housing Authority of the County of Cook,17,031,60471,810,920,1090,1390,1620
"Chicago-Joliet-Naperville, IL-IN-WI MSA",Cook County,The Housing Authority of the County of Cook,17,031,60472,680,780,920,1170,1370
"Chicago-Joliet-Naperville, IL-IN-WI MSA",Cook County,The Housing Authority of the County of Cook,17,031,60473,1140,1290,1530,1950,2270
"Chicago-Joliet-Naperville, IL-IN-WI MSA",Cook County,The Housing Authority of the County of Cook,17,031,60475,660,750,890,1130,1320
"Chicago-Joliet-Naperville, IL-IN-WI MSA",Cook County,The Housing Authority of the County of Cook,17,031,60476,650,740,880,1120,1310
"Chicago-Joliet-Naperville, IL-IN-WI MSA",Cook County,The Housing Authority of the County of Cook,17,031,60477,770,880,1040,1330,1550
"Chicago-Joliet-Naperville, IL-IN-WI MSA",Cook County,The Housing Authority of the County of Cook,17,031,60478,1140,1300,1540,1960,2290
"Chicago-Joliet-Naperville, IL-IN-WI MSA",Cook County,The Housing Authority of the County of Cook,17,031,60480,660,750,890,1130,1320
"Chicago-Joliet-Naperville, IL-IN-WI MSA",Cook County,The Housing Authority of the County of Cook,17,031,60482,710,810,960,1220,1430
"Chicago-Joliet-Naperville, IL-IN-WI MSA",Cook County,The Housing Authority of the County of Cook,17,031,60487,890,1010,1200,1530,1780
"Chicago-Joliet-Naperville, IL-IN-WI MSA",Cook County,The Housing Authority of the County of Cook,17,031,60499,760,870,1030,1310,1530
"Chicago-Joliet-Naperville, IL-IN-WI MSA",Cook County,The Housing Authority of the County of Cook,17,031,60501,710,810,960,1220,1430
"Chicago-Joliet-Naperville, IL-IN-WI MSA",Cook County,The Housing Authority of the County of Cook,17,031,60513,810,920,1090,1390,1620
"Chicago-Joliet-Naperville, IL-IN-WI MSA",Cook County,The Housing Authority of the County of Cook,17,031,60521,910,1040,1230,1570,1830
"Chicago-Joliet-Naperville, IL-IN-WI MSA",Cook County,The Housing Authority of the County of Cook,17,031,60525,740,840,1000,1270,1490
"Chicago-Joliet-Naperville, IL-IN-WI MSA",Cook County,The Housing Authority of the County of Cook,17,031,60526,810,920,1090,1390,1620
"Chicago-Joliet-Naperville, IL-IN-WI MSA",Cook County,The Housing Authority of the County of Cook,17,031,60527,850,960,1140,1450,1690
"Chicago-Joliet-Naperville, IL-IN-WI MSA",Cook County,The Housing Authority of the County of Cook,17,031,60534,730,830,980,1250,1460
"Chicago-Joliet-Naperville, IL-IN-WI MSA",Cook County,The Housing Authority of the County of Cook,17,031,60546,700,790,940,1200,1400
"Chicago-Joliet-Naperville, IL-IN-WI MSA",Cook County,The Housing Authority of the County of Cook,17,031,60558,760,870,1030,1310,1530
"Chicago-Joliet-Naperville, IL-IN-WI MSA",Cook County,The Housing Authority of the County of Cook,17,031,60601,1140,1300,1540,1960,2290
"Chicago-Joliet-Naperville, IL-IN-WI MSA",Cook County,The Housing Authority of the County of Cook,17,031,60602,1140,1300,1540,1960,2290
"Chicago-Joliet-Naperville, IL-IN-WI MSA",Cook County,The Housing Authority of the County of Cook,17,031,60603,1140,1300,1540,1960,2290
"Chicago-Joliet-Naperville, IL-IN-WI MSA",Cook County,The Housing Authority of the County of Cook,17,031,60604,1140,1300,1540,1960,2290
"Chicago-Joliet-Naperville, IL-IN-WI MSA",Cook County,The Housing Authority of the County of Cook,17,031,60605,1140,1300,1540,1960,2290
"Chicago-Joliet-Naperville, IL-IN-WI MSA",Cook County,The Housing Authority of the County of Cook,17,031,60606,1140,1300,1540,1960,2290
"Chicago-Joliet-Naperville, IL-IN-WI MSA",Cook County,The Housing Authority of the County of Cook,17,031,60607,1060,1210,1430,1820,2130
"Chicago-Joliet-Naperville, IL-IN-WI MSA",Cook County,The Housing Authority of the County of Cook,17,031,60608,640,730,860,1100,1280
"Chicago-Joliet-Naperville, IL-IN-WI MSA",Cook County,The Housing Authority of the County of Cook,17,031,60609,670,760,900,1150,1340
"Chicago-Joliet-Naperville, IL-IN-WI MSA",Cook County,The Housing Authority of the County of Cook,17,031,60610,1010,1150,1360,1730,2020
"Chicago-Joliet-Naperville, IL-IN-WI MSA",Cook County,The Housing Authority of the County of Cook,17,031,60611,1140,1300,1540,1960,2290
"Chicago-Joliet-Naperville, IL-IN-WI MSA",Cook County,The Housing Authority of the County of Cook,17,031,60612,790,900,1070,1360,1590
"Chicago-Joliet-Naperville, IL-IN-WI MSA",Cook County,The Housing Authority of the County of Cook,17,031,60613,890,1010,1200,1530,1780
"Chicago-Joliet-Naperville, IL-IN-WI MSA",Cook County,The Housing Authority of the County of Cook,17,031,60614,1010,1150,1360,1730,2020
"Chicago-Joliet-Naperville, IL-IN-WI MSA",Cook County,The Housing Authority of the County of Cook,17,031,60615,740,840,990,1260,1470
"Chicago-Joliet-Naperville, IL-IN-WI MSA",Cook County,The Housing Authority of the County of Cook,17,031,60616,740,840,990,1260,1470
"Chicago-Joliet-Naperville, IL-IN-WI MSA",Cook County,The Housing Authority of the County of Cook,17,031,60617,670,760,900,1150,1340
"Chicago-Joliet-Naperville, IL-IN-WI MSA",Cook County,The Housing Authority of the County of Cook,17,031,60618,790,900,1070,1360,1590
"Chicago-Joliet-Naperville, IL-IN-WI MSA",Cook County,The Housing Authority of the County of Cook,17,031,60619,680,770,910,1160,1350
"Chicago-Joliet-Naperville, IL-IN-WI MSA",Cook County,The Housing Authority of the County of Cook,17,031,60620,710,800,950,1210,1410
"Chicago-Joliet-Naperville, IL-IN-WI MSA",Cook County,The Housing Authority of the County of Cook,17,031,60621,710,800,950,1210,1410
"Chicago-Joliet-Naperville, IL-IN-WI MSA",Cook County,The Housing Authority of the County of Cook,17,031,60622,900,1020,1210,1540,1800
"Chicago-Joliet-Naperville, IL-IN-WI MSA",Cook County,The Housing Authority of the County of Cook,17,031,60623,650,740,880,1120,1310
"Chicago-Joliet-Naperville, IL-IN-WI MSA",Cook County,The Housing Authority of the County of Cook,17,031,60624,790,890,1060,1350,1580
"Chicago-Joliet-Naperville, IL-IN-WI MSA",Cook County,The Housing Authority of the County of Cook,17,031,60625,760,860,1020,1300,1520
"Chicago-Joliet-Naperville, IL-IN-WI MSA",Cook County,The Housing Authority of the County of Cook,17,031,60626,680,780,920,1170,1370
"Chicago-Joliet-Naperville, IL-IN-WI MSA",Cook County,The Housing Authority of the County of Cook,17,031,60628,780,890,1050,1340,1560
"Chicago-Joliet-Naperville, IL-IN-WI MSA",Cook County,The Housing Authority of the County of Cook,17,031,60629,710,810,960,1220,1430
"Chicago-Joliet-Naperville, IL-IN-WI MSA",Cook County,The Housing Authority of the County of Cook,17,031,60630,760,860,1020,1300,1520
"Chicago-Joliet-Naperville, IL-IN-WI MSA",Cook County,The Housing Authority of the County of Cook,17,031,60631,810,920,1090,1390,1620
"Chicago-Joliet-Naperville, IL-IN-WI MSA",Cook County,The Housing Authority of the County of Cook,17,031,60632,680,770,910,1160,1350
"Chicago-Joliet-Naperville, IL-IN-WI MSA",Cook County,The Housing Authority of the County of Cook,17,031,60633,690,780,930,1190,1380
"Chicago-Joliet-Naperville, IL-IN-WI MSA",Cook County,The Housing Authority of the County of Cook,17,031,60634,750,850,1010,1290,1500
"Chicago-Joliet-Naperville, IL-IN-WI MSA",Cook County,The Housing Authority of the County of Cook,17,031,60636,750,850,1010,1290,1500
"Chicago-Joliet-Naperville, IL-IN-WI MSA",Cook County,The Housing Authority of the County of Cook,17,031,60637,730,830,980,1250,1460
"Chicago-Joliet-Naperville, IL-IN-WI MSA",Cook County,The Housing Authority of the County of Cook,17,031,60638,710,800,950,1210,1410
"Chicago-Joliet-Naperville, IL-IN-WI MSA",Cook County,The Housing Authority of the County of Cook,17,031,60639,740,840,1000,1270,1490
"Chicago-Joliet-Naperville, IL-IN-WI MSA",Cook County,The Housing Authority of the County of Cook,17,031,60640,680,780,920,1170,1370
"Chicago-Joliet-Naperville, IL-IN-WI MSA",Cook County,The Housing Authority of the County of Cook,17,031,60641,710,810,960,1220,1430
"Chicago-Joliet-Naperville, IL-IN-WI MSA",Cook County,The Housing Authority of the County of Cook,17,031,60642,880,1000,1190,1520,1770
"Chicago-Joliet-Naperville, IL-IN-WI MSA",Cook County,The Housing Authority of the County of Cook,17,031,60643,740,840,990,1260,1470
"Chicago-Joliet-Naperville, IL-IN-WI MSA",Cook County,The Housing Authority of the County of Cook,17,031,60644,700,790,940,1200,1400
"Chicago-Joliet-Naperville, IL-IN-WI MSA",Cook County,The Housing Authority of the County of Cook,17,031,60645,770,880,1040,1330,1550
"Chicago-Joliet-Naperville, IL-IN-WI MSA",Cook County,The Housing Authority of the County of Cook,17,031,60646,740,840,1000,1270,1490
"Chicago-Joliet-Naperville, IL-IN-WI MSA",Cook County,The Housing Authority of the County of Cook,17,031,60647,790,890,1060,1350,1580
"Chicago-Joliet-Naperville, IL-IN-WI MSA",Cook County,The Housing Authority of the County of Cook,17,031,60649,670,760,900,1150,1340
"Chicago-Joliet-Naperville, IL-IN-WI MSA",Cook County,The Housing Authority of the County of Cook,17,031,60651,780,890,1050,1340,1560
"Chicago-Joliet-Naperville, IL-IN-WI MSA",Cook County,The Housing Authority of the County of Cook,17,031,60652,810,920,1090,1390,1620
"Chicago-Joliet-Naperville, IL-IN-WI MSA",Cook County,The Housing Authority of the County of Cook,17,031,60653,610,690,820,1050,1220
"Chicago-Joliet-Naperville, IL-IN-WI MSA",Cook County,The Housing Authority of the County of Cook,17,031,60654,1140,1300,1540,1960,2290
"Chicago-Joliet-Naperville, IL-IN-WI MSA",Cook County,The Housing Authority of the County of Cook,17,031,60655,720,820,970,1240,1440
"Chicago-Joliet-Naperville, IL-IN-WI MSA",Cook County,The Housing Authority of the County of Cook,17,031,60656,810,920,1090,1390,1620
"Chicago-Joliet-Naperville, IL-IN-WI MSA",Cook County,The Housing Authority of the County of Cook,17,031,60657,940,1060,1260,1610,1870
"Chicago-Joliet-Naperville, IL-IN-WI MSA",Cook County,The Housing Authority of the County of Cook,17,031,60659,770,880,1040,1330,1550
"Chicago-Joliet-Naperville, IL-IN-WI MSA",Cook County,The Housing Authority of the County of Cook,17,031,60660,680,770,910,1160,1350
"Chicago-Joliet-Naperville, IL-IN-WI MSA",Cook County,The Housing Authority of the County of Cook,17,031,60661,1140,1290,1530,1950,2270
"Chicago-Joliet-Naperville, IL-IN-WI MSA",Cook County,The Housing Authority of the County of Cook,17,031,60681,760,870,1030,1310,1530
"Chicago-Joliet-Naperville, IL-IN-WI MSA",Cook County,The Housing Authority of the County of Cook,17,031,60693,760,870,1030,1310,1530
"Chicago-Joliet-Naperville, IL-IN-WI MSA",Cook County,The Housing Authority of the County of Cook,17,031,60706,700,790,940,1200,1400
"Chicago-Joliet-Naperville, IL-IN-WI MSA",Cook County,The Housing Authority of the County of Cook,17,031,60707,710,810,960,1220,1430
"Chicago-Joliet-Naperville, IL-IN-WI MSA",Cook County,The Housing Authority of the County of Cook,17,031,60712,1140,1300,1540,1960,2290
"Chicago-Joliet-Naperville, IL-IN-WI MSA",Cook County,The Housing Authority of the County of Cook,17,031,60714,750,850,1010,1290,1500
"Chicago-Joliet-Naperville, IL-IN-WI MSA",Cook County,The Housing Authority of the County of Cook,17,031,60803,670,760,900,1150,1340
"Chicago-Joliet-Naperville, IL-IN-WI MSA",Cook County,The Housing Authority of the County of Cook,17,031,60804,650,740,880,1120,1310
"Chicago-Joliet-Naperville, IL-IN-WI MSA",Cook County,The Housing Authority of the County of Cook,17,031,60805,800,910,1080,1380,1610
"Chicago-Joliet-Naperville, IL-IN-WI MSA",Cook County,The Housing Authority of the County of Cook,17,031,60827,760,860,1020,1300,1520
"New York-Northern New Jersey-Long Island, NY-NJ-PA MSA",Westchester County,Town of Mamaroneck Public Housing Agency,36,119,10501,1240,1300,1540,2000,2360
"New York-Northern New Jersey-Long Island, NY-NJ-PA MSA",Westchester County,Town of Mamaroneck Public Housing Agency,36,119,10502,1750,1830,2170,2820,3330
"New York-Northern New Jersey-Long Island, NY-NJ-PA MSA",Westchester County,Town of Mamaroneck Public Housing Agency,36,119,10503,1240,1300,1540,2000,2360
"New York-Northern New Jersey-Long Island, NY-NJ-PA MSA",Westchester County,Town of Mamaroneck Public Housing Agency,36,119,10504,1750,1830,2170,2820,3330
"New York-Northern New Jersey-Long Island, NY-NJ-PA MSA",Westchester County,Town of Mamaroneck Public Housing Agency,36,119,10505,1240,1300,1540,2000,2360
"New York-Northern New Jersey-Long Island, NY-NJ-PA MSA",Westchester County,Town of Mamaroneck Public Housing Agency,36,119,10506,1360,1420,1680,2190,2570
"New York-Northern New Jersey-Long Island, NY-NJ-PA MSA",Westchester County,Town of Mamaroneck Public Housing Agency,36,119,10507,1450,1510,1790,2330,2740
"New York-Northern New Jersey-Long Island, NY-NJ-PA MSA",Westchester County,Town of Mamaroneck Public Housing Agency,36,119,10510,1570,1640,1940,2520,2970
"New York-Northern New Jersey-Long Island, NY-NJ-PA MSA",Westchester County,Town of Mamaroneck Public Housing Agency,36,119,10511,1210,1270,1500,1950,2300
"New York-Northern New Jersey-Long Island, NY-NJ-PA MSA",Westchester County,Town of Mamaroneck Public Housing Agency,36,119,10514,1710,1790,2120,2760,3250
"New York-Northern New Jersey-Long Island, NY-NJ-PA MSA",Westchester County,Town of Mamaroneck Public Housing Agency,36,119,10517,1710,1790,2120,2760,3250
"New York-Northern New Jersey-Long Island, NY-NJ-PA MSA",Westchester County,Town of Mamaroneck Public Housing Agency,36,119,10518,1240,1300,1540,2000,2360
"New York-Northern New Jersey-Long Island, NY-NJ-PA MSA",Westchester County,Town of Mamaroneck Public Housing Agency,36,119,10519,1240,1300,1540,2000,2360
"New York-Northern New Jersey-Long Island, NY-NJ-PA MSA",Westchester County,Town of Mamaroneck Public Housing Agency,36,119,10520,1200,1260,1490,1940,2280
"New York-Northern New Jersey-Long Island, NY-NJ-PA MSA",Westchester County,Town of Mamaroneck Public Housing Agency,36,119,10522,1390,1450,1720,2240,2640
"New York-Northern New Jersey-Long Island, NY-NJ-PA MSA",Westchester County,Town of Mamaroneck Public Housing Agency,36,119,10523,1750,1830,2170,2820,3330
"New York-Northern New Jersey-Long Island, NY-NJ-PA MSA",Westchester County,Town of Mamaroneck Public Housing Agency,36,119,10526,1240,1300,1540,2000,2360
"New York-Northern New Jersey-Long Island, NY-NJ-PA MSA",Westchester County,Town of Mamaroneck Public Housing Agency,36,119,10527,1240,1300,1540,2000,2360
"New York-Northern New Jersey-Long Island, NY-NJ-PA MSA",Westchester County,Town of Mamaroneck Public Housing Agency,36,119,10528,1750,1830,2170,2820,3330
"New York-Northern New Jersey-Long Island, NY-NJ-PA MSA",Westchester County,Town of Mamaroneck Public Housing Agency,36,119,10530,1410,1480,1750,2280,2680
"New York-Northern New Jersey-Long Island, NY-NJ-PA MSA",Westchester County,Town of Mamaroneck Public Housing Agency,36,119,10532,1240,1300,1540,2000,2360
"New York-Northern New Jersey-Long Island, NY-NJ-PA MSA",Westchester County,Town of Mamaroneck Public Housing Agency,36,119,10533,1510,1580,1870,2430,2870
"New York-Northern New Jersey-Long Island, NY-NJ-PA MSA",Westchester County,Town of Mamaroneck Public Housing Agency,36,119,10535,1580,1640,1950,2540,2990
"New York-Northern New Jersey-Long Island, NY-NJ-PA MSA",Westchester County,Town of Mamaroneck Public Housing Agency,36,119,10536,1390,1450,1720,2240,2640
"New York-Northern New Jersey-Long Island, NY-NJ-PA MSA",Westchester County,Town of Mamaroneck Public Housing Agency,36,119,10537,950,1000,1180,1530,1810
"New York-Northern New Jersey-Long Island, NY-NJ-PA MSA",Westchester County,Town of Mamaroneck Public Housing Agency,36,119,10538,1450,1510,1790,2330,2740
"New York-Northern New Jersey-Long Island, NY-NJ-PA MSA",Westchester County,Town of Mamaroneck Public Housing Agency,36,119,10540,1240,1300,1540,2000,2360
"New York-Northern New Jersey-Long Island, NY-NJ-PA MSA",Westchester County,Town of Mamaroneck Public Housing Agency,36,119,10543,1510,1580,1870,2430,2870
"New York-Northern New Jersey-Long Island, NY-NJ-PA MSA",Westchester County,Town of Mamaroneck Public Housing Agency,36,119,10546,1370,1430,1700,2210,2610
"New York-Northern New Jersey-Long Island, NY-NJ-PA MSA",Westchester County,Town of Mamaroneck Public Housing Agency,36,119,10547,1170,1220,1450,1890,2220
"New York-Northern New Jersey-Long Island, NY-NJ-PA MSA",Westchester County,Town of Mamaroneck Public Housing Agency,36,119,10548,1400,1460,1730,2250,2650
"New York-Northern New Jersey-Long Island, NY-NJ-PA MSA",Westchester County,Town of Mamaroneck Public Housing Agency,36,119,10549,1280,1330,1580,2060,2420
"New York-Northern New Jersey-Long Island, NY-NJ-PA MSA",Westchester County,Town of Mamaroneck Public Housing Agency,36,119,10550,1090,1140,1350,1760,2070
"New York-Northern New Jersey-Long Island, NY-NJ-PA MSA",Westchester County,Town of Mamaroneck Public Housing Agency,36,119,10551,1240,1300,1540,2000,2360
"New York-Northern New Jersey-Long Island, NY-NJ-PA MSA",Westchester County,Town of Mamaroneck Public Housing Agency,36,119,10552,1140,1190,1410,1830,2160
"New York-Northern New Jersey-Long Island, NY-NJ-PA MSA",Westchester County,Town of Mamaroneck Public Housing Agency,36,119,10553,1220,1270,1510,1960,2310
"New York-Northern New Jersey-Long Island, NY-NJ-PA MSA",Westchester County,Town of Mamaroneck Public Housing Agency,36,119,10560,1240,1300,1540,2000,2360
"New York-Northern New Jersey-Long Island, NY-NJ-PA MSA",Westchester County,Town of Mamaroneck Public Housing Agency,36,119,10562,1290,1350,1600,2080,2450
"New York-Northern New Jersey-Long Island, NY-NJ-PA MSA",Westchester County,Town of Mamaroneck Public Housing Agency,36,119,10566,1260,1320,1560,2030,2390
"New York-Northern New Jersey-Long Island, NY-NJ-PA MSA",Westchester County,Town of Mamaroneck Public Housing Agency,36,119,10567,1570,1640,1940,2520,2970
"New York-Northern New Jersey-Long Island, NY-NJ-PA MSA",Westchester County,Town of Mamaroneck Public Housing Agency,36,119,10570,1530,1600,1900,2470,2910
"New York-Northern New Jersey-Long Island, NY-NJ-PA MSA",Westchester County,Town of Mamaroneck Public Housing Agency,36,119,10573,1390,1450,1720,2240,2640
"New York-Northern New Jersey-Long Island, NY-NJ-PA MSA",Westchester County,Town of Mamaroneck Public Housing Agency,36,119,10576,1750,1830,2170,2820,3330
"New York-Northern New Jersey-Long Island, NY-NJ-PA MSA",Westchester County,Town of Mamaroneck Public Housing Agency,36,119,10577,1240,1300,1540,2000,2360
"New York-Northern New Jersey-Long Island, NY-NJ-PA MSA",Westchester County,Town of Mamaroneck Public Housing Agency,36,119,10578,1240,1300,1540,2000,2360
"New York-Northern New Jersey-Long Island, NY-NJ-PA MSA",Westchester County,Town of Mamaroneck Public Housing Agency,36,119,10580,1660,1730,2050,2670,3140
"New York-Northern New Jersey-Long Island, NY-NJ-PA MSA",Westchester County,Town of Mamaroneck Public Housing Agency,36,119,10583,1750,1830,2170,2820,3330
"New York-Northern New Jersey-Long Island, NY-NJ-PA MSA",Westchester County,Town of Mamaroneck Public Housing Agency,36,119,10588,860,890,1060,1380,1620
"New York-Northern New Jersey-Long Island, NY-NJ-PA MSA",Westchester County,Town of Mamaroneck Public Housing Agency,36,119,10589,1240,1300,1540,2000,2360
"New York-Northern New Jersey-Long Island, NY-NJ-PA MSA",Westchester County,Town of Mamaroneck Public Housing Agency,36,119,10590,1740,1820,2160,2810,3310
"New York-Northern New Jersey-Long Island, NY-NJ-PA MSA",Westchester County,Town of Mamaroneck Public Housing Agency,36,119,10591,1340,1400,1660,2160,2540
"New York-Northern New Jersey-Long Island, NY-NJ-PA MSA",Westchester County,Town of Mamaroneck Public Housing Agency,36,119,10594,1650,1720,2040,2650,3130
"New York-Northern New Jersey-Long Island, NY-NJ-PA MSA",Westchester County,Town of Mamaroneck Public Housing Agency,36,119,10595,1390,1450,1720,2240,2640
"New York-Northern New Jersey-Long Island, NY-NJ-PA MSA",Westchester County,Town of Mamaroneck Public Housing Agency,36,119,10596,980,1020,1210,1570,1850
"New York-Northern New Jersey-Long Island, NY-NJ-PA MSA",Westchester County,Town of Mamaroneck Public Housing Agency,36,119,10597,1240,1300,1540,2000,2360
"New York-Northern New Jersey-Long Island, NY-NJ-PA MSA",Westchester County,Town of Mamaroneck Public Housing Agency,36,119,10598,1360,1420,1680,2190,2570
"New York-Northern New Jersey-Long Island, NY-NJ-PA MSA",Westchester County,Town of Mamaroneck Public Housing Agency,36,119,10601,1250,1310,1550,2020,2380
"New York-Northern New Jersey-Long Island, NY-NJ-PA MSA",Westchester County,Town of Mamaroneck Public Housing Agency,36,119,10602,1240,1300,1540,2000,2360
"New York-Northern New Jersey-Long Island, NY-NJ-PA MSA",Westchester County,Town of Mamaroneck Public Housing Agency,36,119,10603,1380,1440,1710,2220,2620
"New York-Northern New Jersey-Long Island, NY-NJ-PA MSA",Westchester County,Town of Mamaroneck Public Housing Agency,36,119,10604,1440,1500,1780,2320,2730
"New York-Northern New Jersey-Long Island, NY-NJ-PA MSA",Westchester County,Town of Mamaroneck Public Housing Agency,36,119,10605,1270,1320,1570,2040,2410
"New York-Northern New Jersey-Long Island, NY-NJ-PA MSA",Westchester County,Town of Mamaroneck Public Housing Agency,36,119,10606,1450,1510,1790,2330,2740
"New York-Northern New Jersey-Long Island, NY-NJ-PA MSA",Westchester County,Town of Mamaroneck Public Housing Agency,36,119,10607,1670,1750,2070,2690,3170
"New York-Northern New Jersey-Long Island, NY-NJ-PA MSA",Westchester County,Town of Mamaroneck Public Housing Agency,36,119,10701,1100,1150,1360,1770,2080
"New York-Northern New Jersey-Long Island, NY-NJ-PA MSA",Westchester County,Town of Mamaroneck Public Housing Agency,36,119,10702,1240,1300,1540,2000,2360
"New York-Northern New Jersey-Long Island, NY-NJ-PA MSA",Westchester County,Town of Mamaroneck Public Housing Agency,36,119,10703,1130,1180,1400,1820,2150
"New York-Northern New Jersey-Long Island, NY-NJ-PA MSA",Westchester County,Town of Mamaroneck Public Housing Agency,36,119,10704,1230,1280,1520,1980,2330
"New York-Northern New Jersey-Long Island, NY-NJ-PA MSA",Westchester County,Town of Mamaroneck Public Housing Agency,36,119,10705,1070,1120,1330,1730,2040
"New York-Northern New Jersey-Long Island, NY-NJ-PA MSA",Westchester County,Town of Mamaroneck Public Housing Agency,36,119,10706,1210,1270,1500,1950,2300
"New York-Northern New Jersey-Long Island, NY-NJ-PA MSA",Westchester County,Town of Mamaroneck Public Housing Agency,36,119,10707,1420,1480,1760,2290,2700
"New York-Northern New Jersey-Long Island, NY-NJ-PA MSA",Westchester County,Town of Mamaroneck Public Housing Agency,36,119,10708,1440,1500,1780,2320,2730
"New York-Northern New Jersey-Long Island, NY-NJ-PA MSA",Westchester County,Town of Mamaroneck Public Housing Agency,36,119,10709,1410,1480,1750,2280,2680
"New York-Northern New Jersey-Long Island, NY-NJ-PA MSA",Westchester County,Town of Mamaroneck Public Housing Agency,36,119,10710,1130,1180,1400,1820,2150
"New York-Northern New Jersey-Long Island, NY-NJ-PA MSA",Westchester County,Town of Mamaroneck Public Housing Agency,36,119,10801,1210,1270,1500,1950,2300
"New York-Northern New Jersey-Long Island, NY-NJ-PA MSA",Westchester County,Town of Mamaroneck Public Housing Agency,36,119,10802,1240,1300,1540,2000,2360
"New York-Northern New Jersey-Long Island, NY-NJ-PA MSA",Westchester County,Town of Mamaroneck Public Housing Agency,36,119,10803,1280,1340,1590,2070,2440
"New York-Northern New Jersey-Long Island, NY-NJ-PA MSA",Westchester County,Town of Mamaroneck Public Housing Agency,36,119,10804,1520,1590,1880,2450,2880
"New York-Northern New Jersey-Long Island, NY-NJ-PA MSA",Westchester County,Town of Mamaroneck Public Housing Agency,36,119,10805,1270,1320,1570,2040,2410
"Chattanooga, TN-GA MSA",Hamilton County,Chattanooga Housing Authority,47,065,37302,450,550,680,920,1040
"Chattanooga, TN-GA MSA",Hamilton County,Chattanooga Housing Authority,47,065,37308,490,590,730,990,1120
"Chattanooga, TN-GA MSA",Hamilton County,Chattanooga Housing Authority,47,065,37311,490,590,730,990,1120
"Chattanooga, TN-GA MSA",Hamilton County,Chattanooga Housing Authority,47,065,37315,490,590,730,990,1120
"Chattanooga, TN-GA MSA",Hamilton County,Chattanooga Housing Authority,47,065,37336,440,530,660,900,1010
"Chattanooga, TN-GA MSA",Hamilton County,Chattanooga Housing Authority,47,065,37341,630,760,950,1290,1460
"Chattanooga, TN-GA MSA",Hamilton County,Chattanooga Housing Authority,47,065,37343,520,630,780,1060,1200
"Chattanooga, TN-GA MSA",Hamilton County,Chattanooga Housing Authority,47,065,37350,490,590,730,990,1120
"Chattanooga, TN-GA MSA",Hamilton County,Chattanooga Housing Authority,47,065,37351,550,660,820,1120,1260
"Chattanooga, TN-GA MSA",Hamilton County,Chattanooga Housing Authority,47,065,37353,470,570,710,970,1090
"Chattanooga, TN-GA MSA",Hamilton County,Chattanooga Housing Authority,47,065,37363,520,630,780,1060,1200
"Chattanooga, TN-GA MSA",Hamilton County,Chattanooga Housing Authority,47,065,37373,470,570,710,970,1090
"Chattanooga, TN-GA MSA",Hamilton County,Chattanooga Housing Authority,47,065,37377,520,630,780,1060,1200
"Chattanooga, TN-GA MSA",Hamilton County,Chattanooga Housing Authority,47,065,37379,510,610,760,1030,1160
"Chattanooga, TN-GA MSA",Hamilton County,Chattanooga Housing Authority,47,065,37401,490,590,730,990,1120
"Chattanooga, TN-GA MSA",Hamilton County,Chattanooga Housing Authority,47,065,37402,390,470,590,800,900
"Chattanooga, TN-GA MSA",Hamilton County,Chattanooga Housing Authority,47,065,37403,390,470,590,800,900
"Chattanooga, TN-GA MSA",Hamilton County,Chattanooga Housing Authority,47,065,37404,450,550,680,920,1040
"Chattanooga, TN-GA MSA",Hamilton County,Chattanooga Housing Authority,47,065,37405,490,590,740,1010,1130
"Chattanooga, TN-GA MSA",Hamilton County,Chattanooga Housing Authority,47,065,37406,410,500,620,840,950
"Chattanooga, TN-GA MSA",Hamilton County,Chattanooga Housing Authority,47,065,37407,500,600,750,1020,1150
"Chattanooga, TN-GA MSA",Hamilton County,Chattanooga Housing Authority,47,065,37408,390,470,590,800,900
"Chattanooga, TN-GA MSA",Hamilton County,Chattanooga Housing Authority,47,065,37409,470,570,710,970,1090
"Chattanooga, TN-GA MSA",Hamilton County,Chattanooga Housing Authority,47,065,37410,400,480,600,820,920
"Chattanooga, TN-GA MSA",Hamilton County,Chattanooga Housing Authority,47,065,37411,450,550,680,920,1040
"Chattanooga, TN-GA MSA",Hamilton County,Chattanooga Housing Authority,47,065,37412,470,570,710,970,1090
"Chattanooga, TN-GA MSA",Hamilton County,Chattanooga Housing Authority,47,065,37414,490,590,730,990,1120
"Chattanooga, TN-GA MSA",Hamilton County,Chattanooga Housing Authority,47,065,37415,470,570,710,970,1090
"Chattanooga, TN-GA MSA",Hamilton County,Chattanooga Housing Authority,47,065,37416,520,630,780,1060,1200
"Chattanooga, TN-GA MSA",Hamilton County,Chattanooga Housing Authority,47,065,37419,440,530,660,900,1010
"Chattanooga, TN-GA MSA",Hamilton County,Chattanooga Housing Authority,47,065,37421,530,640,790,1070,1210
"Dallas-Fort Worth-Arlington, TX MSA",Collin County,"All Housing Authorities within the Dallas, TX HMFA",48,085,75002,780,930,1180,1570,1900
"Dallas-Fort Worth-Arlington, TX MSA",Collin County,"All Housing Authorities within the Dallas, TX HMFA",48,085,75009,630,750,950,1270,1530
"Dallas-Fort Worth-Arlington, TX MSA",Collin County,"All Housing Authorities within the Dallas, TX HMFA",48,085,75013,780,940,1190,1590,1920
"Dallas-Fort Worth-Arlington, TX MSA",Collin County,"All Housing Authorities within the Dallas, TX HMFA",48,085,75023,730,870,1100,1470,1770
"Dallas-Fort Worth-Arlington, TX MSA",Collin County,"All Housing Authorities within the Dallas, TX HMFA",48,085,75024,710,850,1070,1430,1720
"Dallas-Fort Worth-Arlington, TX MSA",Collin County,"All Housing Authorities within the Dallas, TX HMFA",48,085,75025,780,940,1190,1590,1920
"Dallas-Fort Worth-Arlington, TX MSA",Collin County,"All Housing Authorities within the Dallas, TX HMFA",48,085,75034,750,900,1140,1520,1840
"Dallas-Fort Worth-Arlington, TX MSA",Collin County,"All Housing Authorities within the Dallas, TX HMFA",48,085,75035,900,1080,1360,1810,2190
"Dallas-Fort Worth-Arlington, TX MSA",Collin County,"All Housing Authorities within the Dallas, TX HMFA",48,085,75048,770,930,1170,1560,1880
"Dallas-Fort Worth-Arlington, TX MSA",Collin County,"All Housing Authorities within the Dallas, TX HMFA",48,085,75069,610,730,920,1230,1480
"Dallas-Fort Worth-Arlington, TX MSA",Collin County,"All Housing Authorities within the Dallas, TX HMFA",48,085,75070,870,1040,1320,1760,2130
"Dallas-Fort Worth-Arlington, TX MSA",Collin County,"All Housing Authorities within the Dallas, TX HMFA",48,085,75071,640,770,970,1290,1560
"Dallas-Fort Worth-Arlington, TX MSA",Collin County,"All Housing Authorities within the Dallas, TX HMFA",48,085,75074,650,780,990,1320,1590
"Dallas-Fort Worth-Arlington, TX MSA",Collin County,"All Housing Authorities within the Dallas, TX HMFA",48,085,75075,660,790,1000,1330,1610
"Dallas-Fort Worth-Arlington, TX MSA",Collin County,"All Housing Authorities within the Dallas, TX HMFA",48,085,75078,760,920,1160,1550,1870
"Dallas-Fort Worth-Arlington, TX MSA",Collin County,"All Housing Authorities within the Dallas, TX HMFA",48,085,75080,720,860,1090,1450,1760
"Dallas-Fort Worth-Arlington, TX MSA",Collin County,"All Housing Authorities within the Dallas, TX HMFA",48,085,75082,760,910,1150,1530,1850
"Dallas-Fort Worth-Arlington, TX MSA",Collin County,"All Housing Authorities within the Dallas, TX HMFA",48,085,75093,710,850,1070,1430,1720
"Dallas-Fort Worth-Arlington, TX MSA",Collin County,"All Housing Authorities within the Dallas, TX HMFA",48,085,75094,910,1090,1380,1840,2220
"Dallas-Fort Worth-Arlington, TX MSA",Collin County,"All Housing Authorities within the Dallas, TX HMFA",48,085,75098,760,910,1150,1530,1850
"Dallas-Fort Worth-Arlington, TX MSA",Collin County,"All Housing Authorities within the Dallas, TX HMFA",48,085,75164,570,690,870,1160,1400
"Dallas-Fort Worth-Arlington, TX MSA",Collin County,"All Housing Authorities within the Dallas, TX HMFA",48,085,75166,910,1090,1380,1840,2220
"Dallas-Fort Worth-Arlington, TX MSA",Collin County,"All Housing Authorities within the Dallas, TX HMFA",48,085,75173,760,910,1150,1530,1850
"Dallas-Fort Worth-Arlington, TX MSA",Collin County,"All Housing Authorities within the Dallas, TX HMFA",48,085,75189,690,830,1050,1400,1690
"Dallas-Fort Worth-Arlington, TX MSA",Collin County,"All Housing Authorities within the Dallas, TX HMFA",48,085,75252,550,660,840,1120,1350
"Dallas-Fort Worth-Arlington, TX MSA",Collin County,"All Housing Authorities within the Dallas, TX HMFA",48,085,75287,590,700,890,1190,1430
"Dallas-Fort Worth-Arlington, TX MSA",Collin County,"All Housing Authorities within the Dallas, TX HMFA",48,085,75370,690,820,1040,1390,1680
"Dallas-Fort Worth-Arlington, TX MSA",Collin County,"All Housing Authorities within the Dallas, TX HMFA",48,085,75407,690,830,1050,1400,1690
"Dallas-Fort Worth-Arlington, TX MSA",Collin County,"All Housing Authorities within the Dallas, TX HMFA",48,085,75409,650,780,990,1320,1590
"Dallas-Fort Worth-Arlington, TX MSA",Collin County,"All Housing Authorities within the Dallas, TX HMFA",48,085,75424,650,780,990,1320,1590
"Dallas-Fort Worth-Arlington, TX MSA",Collin County,"All Housing Authorities within the Dallas, TX HMFA",48,085,75442,560,670,850,1130,1370
"Dallas-Fort Worth-Arlington, TX MSA",Collin County,"All Housing Authorities within the Dallas, TX HMFA",48,085,75452,550,660,830,1110,1340
"Dallas-Fort Worth-Arlington, TX MSA",Collin County,"All Housing Authorities within the Dallas, TX HMFA",48,085,75454,760,910,1150,1530,1850
"Dallas-Fort Worth-Arlington, TX MSA",Collin County,"All Housing Authorities within the Dallas, TX HMFA",48,085,75491,690,820,1040,1390,1680
"Dallas-Fort Worth-Arlington, TX MSA",Collin County,"All Housing Authorities within the Dallas, TX HMFA",48,085,75495,580,700,880,1170,1420
"Dallas-Fort Worth-Arlington, TX MSA",Dallas County,"All Housing Authorities within the Dallas, TX HMFA",48,113,75001,650,770,980,1310,1580
"Dallas-Fort Worth-Arlington, TX MSA",Dallas County,"All Housing Authorities within the Dallas, TX HMFA",48,113,75006,610,740,930,1240,1500
"Dallas-Fort Worth-Arlington, TX MSA",Dallas County,"All Housing Authorities within the Dallas, TX HMFA",48,113,75007,670,810,1020,1360,1640
"Dallas-Fort Worth-Arlington, TX MSA",Dallas County,"All Housing Authorities within the Dallas, TX HMFA",48,113,75015,590,710,900,1200,1450
"Dallas-Fort Worth-Arlington, TX MSA",Dallas County,"All Housing Authorities within the Dallas, TX HMFA",48,113,75016,590,710,900,1200,1450
"Dallas-Fort Worth-Arlington, TX MSA",Dallas County,"All Housing Authorities within the Dallas, TX HMFA",48,113,75017,590,710,900,1200,1450
"Dallas-Fort Worth-Arlington, TX MSA",Dallas County,"All Housing Authorities within the Dallas, TX HMFA",48,113,75019,770,930,1170,1560,1880
"Dallas-Fort Worth-Arlington, TX MSA",Dallas County,"All Housing Authorities within the Dallas, TX HMFA",48,113,75030,590,710,900,1200,1450
"Dallas-Fort Worth-Arlington, TX MSA",Dallas County,"All Housing Authorities within the Dallas, TX HMFA",48,113,75038,610,730,920,1230,1480
"Dallas-Fort Worth-Arlington, TX MSA",Dallas County,"All Housing Authorities within the Dallas, TX HMFA",48,113,75039,750,890,1130,1510,1820
"Dallas-Fort Worth-Arlington, TX MSA",Dallas County,"All Housing Authorities within the Dallas, TX HMFA",48,113,75040,750,900,1140,1520,1840
"Dallas-Fort Worth-Arlington, TX MSA",Dallas County,"All Housing Authorities within the Dallas, TX HMFA",48,113,75041,600,720,910,1210,1470
"Dallas-Fort Worth-Arlington, TX MSA",Dallas County,"All Housing Authorities within the Dallas, TX HMFA",48,113,75042,570,690,870,1160,1400
"Dallas-Fort Worth-Arlington, TX MSA",Dallas County,"All Housing Authorities within the Dallas, TX HMFA",48,113,75043,630,760,960,1280,1550
"Dallas-Fort Worth-Arlington, TX MSA",Dallas County,"All Housing Authorities within the Dallas, TX HMFA",48,113,75044,700,840,1060,1410,1710
"Dallas-Fort Worth-Arlington, TX MSA",Dallas County,"All Housing Authorities within the Dallas, TX HMFA",48,113,75045,590,710,900,1200,1450
"Dallas-Fort Worth-Arlington, TX MSA",Dallas County,"All Housing Authorities within the Dallas, TX HMFA",48,113,75046,590,710,900,1200,1450
"Dallas-Fort Worth-Arlington, TX MSA",Dallas County,"All Housing Authorities within the Dallas, TX HMFA",48,113,75048,770,930,1170,1560,1880
"Dallas-Fort Worth-Arlington, TX MSA",Dallas County,"All Housing Authorities within the Dallas, TX HMFA",48,113,75050,570,680,860,1150,1390
"Dallas-Fort Worth-Arlington, TX MSA",Dallas County,"All Housing Authorities within the Dallas, TX HMFA",48,113,75051,570,680,860,1150,1390
"Dallas-Fort Worth-Arlington, TX MSA",Dallas County,"All Housing Authorities within the Dallas, TX HMFA",48,113,75052,740,890,1120,1490,1800
"Dallas-Fort Worth-Arlington, TX MSA",Dallas County,"All Housing Authorities within the Dallas, TX HMFA",48,113,75053,590,710,900,1200,1450
"Dallas-Fort Worth-Arlington, TX MSA",Dallas County,"All Housing Authorities within the Dallas, TX HMFA",48,113,75060,550,660,840,1120,1350
"Dallas-Fort Worth-Arlington, TX MSA",Dallas County,"All Housing Authorities within the Dallas, TX HMFA",48,113,75061,520,620,790,1050,1270
"Dallas-Fort Worth-Arlington, TX MSA",Dallas County,"All Housing Authorities within the Dallas, TX HMFA",48,113,75062,570,690,870,1160,1400
"Dallas-Fort Worth-Arlington, TX MSA",Dallas County,"All Housing Authorities within the Dallas, TX HMFA",48,113,75063,700,840,1060,1410,1710
"Dallas-Fort Worth-Arlington, TX MSA",Dallas County,"All Housing Authorities within the Dallas, TX HMFA",48,113,75080,720,860,1090,1450,1760
"Dallas-Fort Worth-Arlington, TX MSA",Dallas County,"All Housing Authorities within the Dallas, TX HMFA",48,113,75081,730,880,1110,1480,1790
"Dallas-Fort Worth-Arlington, TX MSA",Dallas County,"All Housing Authorities within the Dallas, TX HMFA",48,113,75082,760,910,1150,1530,1850
"Dallas-Fort Worth-Arlington, TX MSA",Dallas County,"All Housing Authorities within the Dallas, TX HMFA",48,113,75083,590,710,900,1200,1450
"Dallas-Fort Worth-Arlington, TX MSA",Dallas County,"All Housing Authorities within the Dallas, TX HMFA",48,113,75085,590,710,900,1200,1450
"Dallas-Fort Worth-Arlington, TX MSA",Dallas County,"All Housing Authorities within the Dallas, TX HMFA",48,113,75088,880,1050,1330,1770,2140
"Dallas-Fort Worth-Arlington, TX MSA",Dallas County,"All Housing Authorities within the Dallas, TX HMFA",48,113,75089,910,1090,1380,1840,2220
"Dallas-Fort Worth-Arlington, TX MSA",Dallas County,"All Housing Authorities within the Dallas, TX HMFA",48,113,75104,790,950,1200,1600,1930
"Dallas-Fort Worth-Arlington, TX MSA",Dallas County,"All Housing Authorities within the Dallas, TX HMFA",48,113,75106,590,710,900,1200,1450
"Dallas-Fort Worth-Arlington, TX MSA",Dallas County,"All Housing Authorities within the Dallas, TX HMFA",48,113,75115,630,750,950,1270,1530
"Dallas-Fort Worth-Arlington, TX MSA",Dallas County,"All Housing Authorities within the Dallas, TX HMFA",48,113,75116,640,770,970,1290,1560
"Dallas-Fort Worth-Arlington, TX MSA",Dallas County,"All Housing Authorities within the Dallas, TX HMFA",48,113,75123,590,710,900,1200,1450
"Dallas-Fort Worth-Arlington, TX MSA",Dallas County,"All Housing Authorities within the Dallas, TX HMFA",48,113,75134,630,760,960,1280,1550
"Dallas-Fort Worth-Arlington, TX MSA",Dallas County,"All Housing Authorities within the Dallas, TX HMFA",48,113,75137,780,940,1190,1590,1920
"Dallas-Fort Worth-Arlington, TX MSA",Dallas County,"All Housing Authorities within the Dallas, TX HMFA",48,113,75141,570,680,860,1150,1390
"Dallas-Fort Worth-Arlington, TX MSA",Dallas County,"All Housing Authorities within the Dallas, TX HMFA",48,113,75146,620,740,940,1250,1510
"Dallas-Fort Worth-Arlington, TX MSA",Dallas County,"All Housing Authorities within the Dallas, TX HMFA",48,113,75149,670,810,1020,1360,1640
"Dallas-Fort Worth-Arlington, TX MSA",Dallas County,"All Housing Authorities within the Dallas, TX HMFA",48,113,75150,630,750,950,1270,1530
"Dallas-Fort Worth-Arlington, TX MSA",Dallas County,"All Housing Authorities within the Dallas, TX HMFA",48,113,75154,760,910,1150,1530,1850
"Dallas-Fort Worth-Arlington, TX MSA",Dallas County,"All Housing Authorities within the Dallas, TX HMFA",48,113,75159,630,750,950,1270,1530
"Dallas-Fort Worth-Arlington, TX MSA",Dallas County,"All Housing Authorities within the Dallas, TX HMFA",48,113,75172,490,590,750,1000,1210
"Dallas-Fort Worth-Arlington, TX MSA",Dallas County,"All Housing Authorities within the Dallas, TX HMFA",48,113,75180,560,670,850,1130,1370
"Dallas-Fort Worth-Arlington, TX MSA",Dallas County,"All Housing Authorities within the Dallas, TX HMFA",48,113,75181,910,1090,1380,1840,2220
"Dallas-Fort Worth-Arlington, TX MSA",Dallas County,"All Housing Authorities within the Dallas, TX HMFA",48,113,75182,590,710,900,1200,1450
"Dallas-Fort Worth-Arlington, TX MSA",Dallas County,"All Housing Authorities within the Dallas, TX HMFA",48,113,75185,590,710,900,1200,1450
"Dallas-Fort Worth-Arlington, TX MSA",Dallas County,"All Housing Authorities within the Dallas, TX HMFA",48,113,75187,590,710,900,1200,1450
"Dallas-Fort Worth-Arlington, TX MSA",Dallas County,"All Housing Authorities within the Dallas, TX HMFA",48,113,75201,860,1030,1300,1730,2090
"Dallas-Fort Worth-Arlington, TX MSA",Dallas County,"All Housing Authorities within the Dallas, TX HMFA",48,113,75202,910,1090,1380,1840,2220
"Dallas-Fort Worth-Arlington, TX MSA",Dallas County,"All Housing Authorities within the Dallas, TX HMFA",48,113,75203,460,550,700,930,1130
"Dallas-Fort Worth-Arlington, TX MSA",Dallas County,"All Housing Authorities within the Dallas, TX HMFA",48,113,75204,780,930,1180,1570,1900
"Dallas-Fort Worth-Arlington, TX MSA",Dallas County,"All Housing Authorities within the Dallas, TX HMFA",48,113,75205,750,900,1140,1520,1840
"Dallas-Fort Worth-Arlington, TX MSA",Dallas County,"All Housing Authorities within the Dallas, TX HMFA",48,113,75206,630,750,950,1270,1530
"Dallas-Fort Worth-Arlington, TX MSA",Dallas County,"All Housing Authorities within the Dallas, TX HMFA",48,113,75207,610,730,920,1230,1480
"Dallas-Fort Worth-Arlington, TX MSA",Dallas County,"All Housing Authorities within the Dallas, TX HMFA",48,113,75208,530,630,800,1070,1290
"Dallas-Fort Worth-Arlington, TX MSA",Dallas County,"All Housing Authorities within the Dallas, TX HMFA",48,113,75209,780,930,1180,1570,1900
"Dallas-Fort Worth-Arlington, TX MSA",Dallas County,"All Housing Authorities within the Dallas, TX HMFA",48,113,75210,460,550,700,930,1130
"Dallas-Fort Worth-Arlington, TX MSA",Dallas County,"All Housing Authorities within the Dallas, TX HMFA",48,113,75211,540,650,820,1090,1320
"Dallas-Fort Worth-Arlington, TX MSA",Dallas County,"All Housing Authorities within the Dallas, TX HMFA",48,113,75212,530,630,800,1070,1290
"Dallas-Fort Worth-Arlington, TX MSA",Dallas County,"All Housing Authorities within the Dallas, TX HMFA",48,113,75214,570,680,860,1150,1390
"Dallas-Fort Worth-Arlington, TX MSA",Dallas County,"All Housing Authorities within the Dallas, TX HMFA",48,113,75215,500,600,760,1010,1220
"Dallas-Fort Worth-Arlington, TX MSA",Dallas County,"All Housing Authorities within the Dallas, TX HMFA",48,113,75216,530,640,810,1080,1300
"Dallas-Fort Worth-Arlington, TX MSA",Dallas County,"All Housing Authorities within the Dallas, TX HMFA",48,113,75217,590,710,900,1200,1450
"Dallas-Fort Worth-Arlington, TX MSA",Dallas County,"All Housing Authorities within the Dallas, TX HMFA",48,113,75218,670,810,1020,1360,1640
"Dallas-Fort Worth-Arlington, TX MSA",Dallas County,"All Housing Authorities within the Dallas, TX HMFA",48,113,75219,620,740,940,1250,1510
"Dallas-Fort Worth-Arlington, TX MSA",Dallas County,"All Housing Authorities within the Dallas, TX HMFA",48,113,75220,510,610,770,1030,1240
"Dallas-Fort Worth-Arlington, TX MSA",Dallas County,"All Housing Authorities within the Dallas, TX HMFA",48,113,75222,590,710,900,1200,1450
"Dallas-Fort Worth-Arlington, TX MSA",Dallas County,"All Housing Authorities within the Dallas, TX HMFA",48,113,75223,550,660,830,1110,1340
"Dallas-Fort Worth-Arlington, TX MSA",Dallas County,"All Housing Authorities within the Dallas, TX HMFA",48,113,75224,510,620,780,1040,1260
"Dallas-Fort Worth-Arlington, TX MSA",Dallas County,"All Housing Authorities within the Dallas, TX HMFA",48,113,75225,910,1090,1380,1840,2220
"Dallas-Fort Worth-Arlington, TX MSA",Dallas County,"All Housing Authorities within the Dallas, TX HMFA",48,113,75226,730,870,1100,1470,1770
"Dallas-Fort Worth-Arlington, TX MSA",Dallas County,"All Housing Authorities within the Dallas, TX HMFA",48,113,75227,550,660,840,1120,1350
"Dallas-Fort Worth-Arlington, TX MSA",Dallas County,"All Housing Authorities within the Dallas, TX HMFA",48,113,75228,490,590,740,990,1190
"Dallas-Fort Worth-Arlington, TX MSA",Dallas County,"All Housing Authorities within the Dallas, TX HMFA",48,113,75229,570,690,870,1160,1400
"Dallas-Fort Worth-Arlington, TX MSA",Dallas County,"All Housing Authorities within the Dallas, TX HMFA",48,113,75230,510,610,770,1030,1240
"Dallas-Fort Worth-Arlington, TX MSA",Dallas County,"All Housing Authorities within the Dallas, TX HMFA",48,113,75231,480,580,730,970,1180
"Dallas-Fort Worth-Arlington, TX MSA",Dallas County,"All Housing Authorities within the Dallas, TX HMFA",48,113,75232,540,650,820,1090,1320
"Dallas-Fort Worth-Arlington, TX MSA",Dallas County,"All Housing Authorities within the Dallas, TX HMFA",48,113,75233,570,680,860,1150,1390
"Dallas-Fort Worth-Arlington, TX MSA",Dallas County,"All Housing Authorities within the Dallas, TX HMFA",48,113,75234,610,740,930,1240,1500
"Dallas-Fort Worth-Arlington, TX MSA",Dallas County,"All Housing Authorities within the Dallas, TX HMFA",48,113,75235,590,710,900,1200,1450
"Dallas-Fort Worth-Arlington, TX MSA",Dallas County,"All Housing Authorities within the Dallas, TX HMFA",48,113,75236,580,700,880,1170,1420
"Dallas-Fort Worth-Arlington, TX MSA",Dallas County,"All Housing Authorities within the Dallas, TX HMFA",48,113,75237,540,650,820,1090,1320
"Dallas-Fort Worth-Arlington, TX MSA",Dallas County,"All Housing Authorities within the Dallas, TX HMFA",48,113,75238,520,620,790,1050,1270
"Dallas-Fort Worth-Arlington, TX MSA",Dallas County,"All Housing Authorities within the Dallas, TX HMFA",48,113,75240,550,660,830,1110,1340
"Dallas-Fort Worth-Arlington, TX MSA",Dallas County,"All Housing Authorities within the Dallas, TX HMFA",48,113,75241,630,760,960,1280,1550
"Dallas-Fort Worth-Arlington, TX MSA",Dallas County,"All Housing Authorities within the Dallas, TX HMFA",48,113,75242,590,710,900,1200,1450
"Dallas-Fort Worth-Arlington, TX MSA",Dallas County,"All Housing Authorities within the Dallas, TX HMFA",48,113,75243,530,630,800,1070,1290
"Dallas-Fort Worth-Arlington, TX MSA",Dallas County,"All Housing Authorities within the Dallas, TX HMFA",48,113,75244,760,920,1160,1550,1870
"Dallas-Fort Worth-Arlington, TX MSA",Dallas County,"All Housing Authorities within the Dallas, TX HMFA",48,113,75246,460,550,690,920,1110
"Dallas-Fort Worth-Arlington, TX MSA",Dallas County,"All Housing Authorities within the Dallas, TX HMFA",48,113,75247,500,600,760,1010,1220
"Dallas-Fort Worth-Arlington, TX MSA",Dallas County,"All Housing Authorities within the Dallas, TX HMFA",48,113,75248,670,800,1010,1350,1630
"Dallas-Fort Worth-Arlington, TX MSA",Dallas County,"All Housing Authorities within the Dallas, TX HMFA",48,113,75249,750,890,1130,1510,1820
"Dallas-Fort Worth-Arlington, TX MSA",Dallas County,"All Housing Authorities within the Dallas, TX HMFA",48,113,75250,590,710,900,1200,1450
"Dallas-Fort Worth-Arlington, TX MSA",Dallas County,"All Housing Authorities within the Dallas, TX HMFA",48,113,75251,800,960,1220,1630,1970
"Dallas-Fort Worth-Arlington, TX MSA",Dallas County,"All Housing Authorities within the Dallas, TX HMFA",48,113,75253,580,700,880,1170,1420
"Dallas-Fort Worth-Arlington, TX MSA",Dallas County,"All Housing Authorities within the Dallas, TX HMFA",48,113,75254,610,730,920,1230,1480
"Dallas-Fort Worth-Arlington, TX MSA",Dallas County,"All Housing Authorities within the Dallas, TX HMFA",48,113,75313,590,710,900,1200,1450
"Dallas-Fort Worth-Arlington, TX MSA",Dallas County,"All Housing Authorities within the Dallas, TX HMFA",48,113,75354,590,710,900,1200,1450
"Dallas-Fort Worth-Arlington, TX MSA",Dallas County,"All Housing Authorities within the Dallas, TX HMFA",48,113,75355,590,710,900,1200,1450
"Dallas-Fort Worth-Arlington, TX MSA",Dallas County,"All Housing Authorities within the Dallas, TX HMFA",48,113,75356,590,710,900,1200,1450
"Dallas-Fort Worth-Arlington, TX MSA",Dallas County,"All Housing Authorities within the Dallas, TX HMFA",48,113,75367,590,710,900,1200,1450
"Dallas-Fort Worth-Arlington, TX MSA",Dallas County,"All Housing Authorities within the Dallas, TX HMFA",48,113,75374,590,710,900,1200,1450
"Dallas-Fort Worth-Arlington, TX MSA",Dallas County,"All Housing Authorities within the Dallas, TX HMFA",48,113,75378,590,710,900,1200,1450
"Dallas-Fort Worth-Arlington, TX MSA",Dallas County,"All Housing Authorities within the Dallas, TX HMFA",48,113,75379,590,710,900,1200,1450
"Dallas-Fort Worth-Arlington, TX MSA",Dallas County,"All Housing Authorities within the Dallas, TX HMFA",48,113,75381,590,710,900,1200,1450
"Dallas-Fort Worth-Arlington, TX MSA",Dallas County,"All Housing Authorities within the Dallas, TX HMFA",48,113,75382,590,710,900,1200,1450
"Dallas-Fort Worth-Arlington, TX MSA",Delta County,"All Housing Authorities within the Dallas, TX HMFA",48,119,75415,560,670,850,1130,1370
"Dallas-Fort Worth-Arlington, TX MSA",Delta County,"All Housing Authorities within the Dallas, TX HMFA",48,119,75432,530,640,810,1080,1300
"Dallas-Fort Worth-Arlington, TX MSA",Delta County,"All Housing Authorities within the Dallas, TX HMFA",48,119,75441,560,670,850,1130,1370
"Dallas-Fort Worth-Arlington, TX MSA",Delta County,"All Housing Authorities within the Dallas, TX HMFA",48,119,75448,560,670,850,1130,1370
"Dallas-Fort Worth-Arlington, TX MSA",Delta County,"All Housing Authorities within the Dallas, TX HMFA",48,119,75450,560,670,850,1130,1370
"Dallas-Fort Worth-Arlington, TX MSA",Delta County,"All Housing Authorities within the Dallas, TX HMFA",48,119,75469,560,670,850,1130,1370
"Dallas-Fort Worth-Arlington, TX MSA",Denton County,"All Housing Authorities within the Dallas, TX HMFA",48,121,75007,670,810,1020,1360,1640
"Dallas-Fort Worth-Arlington, TX MSA",Denton County,"All Housing Authorities within the Dallas, TX HMFA",48,121,75009,630,750,950,1270,1530
"Dallas-Fort Worth-Arlington, TX MSA",Denton County,"All Housing Authorities within the Dallas, TX HMFA",48,121,75010,770,930,1170,1560,1880
"Dallas-Fort Worth-Arlington, TX MSA",Denton County,"All Housing Authorities within the Dallas, TX HMFA",48,121,75022,780,930,1180,1570,1900
"Dallas-Fort Worth-Arlington, TX MSA",Denton County,"All Housing Authorities within the Dallas, TX HMFA",48,121,75028,910,1090,1380,1840,2220
"Dallas-Fort Worth-Arlington, TX MSA",Denton County,"All Housing Authorities within the Dallas, TX HMFA",48,121,75034,750,900,1140,1520,1840
"Dallas-Fort Worth-Arlington, TX MSA",Denton County,"All Housing Authorities within the Dallas, TX HMFA",48,121,75056,820,990,1250,1670,2010
"Dallas-Fort Worth-Arlington, TX MSA",Denton County,"All Housing Authorities within the Dallas, TX HMFA",48,121,75057,630,750,950,1270,1530
"Dallas-Fort Worth-Arlington, TX MSA",Denton County,"All Housing Authorities within the Dallas, TX HMFA",48,121,75065,680,810,1030,1370,1660
"Dallas-Fort Worth-Arlington, TX MSA",Denton County,"All Housing Authorities within the Dallas, TX HMFA",48,121,75067,630,750,950,1270,1530
"Dallas-Fort Worth-Arlington, TX MSA",Denton County,"All Housing Authorities within the Dallas, TX HMFA",48,121,75068,730,880,1110,1480,1790
"Dallas-Fort Worth-Arlington, TX MSA",Denton County,"All Housing Authorities within the Dallas, TX HMFA",48,121,75077,800,960,1210,1610,1950
"Dallas-Fort Worth-Arlington, TX MSA",Denton County,"All Housing Authorities within the Dallas, TX HMFA",48,121,75093,710,850,1070,1430,1720
"Dallas-Fort Worth-Arlington, TX MSA",Denton County,"All Housing Authorities within the Dallas, TX HMFA",48,121,75287,590,700,890,1190,1430
"Dallas-Fort Worth-Arlington, TX MSA",Denton County,"All Housing Authorities within the Dallas, TX HMFA",48,121,76052,910,1090,1380,1840,2220
"Dallas-Fort Worth-Arlington, TX MSA",Denton County,"All Housing Authorities within the Dallas, TX HMFA",48,121,76177,600,720,910,1210,1470
"Dallas-Fort Worth-Arlington, TX MSA",Denton County,"All Housing Authorities within the Dallas, TX HMFA",48,121,76201,480,580,730,970,1180
"Dallas-Fort Worth-Arlington, TX MSA",Denton County,"All Housing Authorities within the Dallas, TX HMFA",48,121,76202,630,750,950,1270,1530
"Dallas-Fort Worth-Arlington, TX MSA",Denton County,"All Housing Authorities within the Dallas, TX HMFA",48,121,76205,590,700,890,1190,1430
"Dallas-Fort Worth-Arlington, TX MSA",Denton County,"All Housing Authorities within the Dallas, TX HMFA",48,121,76207,570,680,860,1150,1390
"Dallas-Fort Worth-Arlington, TX MSA",Denton County,"All Housing Authorities within the Dallas, TX HMFA",48,121,76208,630,760,960,1280,1550
"Dallas-Fort Worth-Arlington, TX MSA",Denton County,"All Housing Authorities within the Dallas, TX HMFA",48,121,76209,580,700,880,1170,1420
"Dallas-Fort Worth-Arlington, TX MSA",Denton County,"All Housing Authorities within the Dallas, TX HMFA",48,121,76210,740,890,1120,1490,1800
"Dallas-Fort Worth-Arlington, TX MSA",Denton County,"All Housing Authorities within the Dallas, TX HMFA",48,121,76226,910,1090,1380,1840,2220
"Dallas-Fort Worth-Arlington, TX MSA",Denton County,"All Housing Authorities within the Dallas, TX HMFA",48,121,76227,860,1030,1300,1730,2090
"Dallas-Fort Worth-Arlington, TX MSA",Denton County,"All Housing Authorities within the Dallas, TX HMFA",48,121,76247,730,870,1100,1470,1770
"Dallas-Fort Worth-Arlington, TX MSA",Denton County,"All Housing Authorities within the Dallas, TX HMFA",48,121,76249,760,920,1160,1550,1870
"Dallas-Fort Worth-Arlington, TX MSA",Denton County,"All Housing Authorities within the Dallas, TX HMFA",48,121,76258,580,700,880,1170,1420
"Dallas-Fort Worth-Arlington, TX MSA",Denton County,"All Housing Authorities within the Dallas, TX HMFA",48,121,76259,650,770,980,1310,1580
"Dallas-Fort Worth-Arlington, TX MSA",Denton County,"All Housing Authorities within the Dallas, TX HMFA",48,121,76262,730,880,1110,1480,1790
"Dallas-Fort Worth-Arlington, TX MSA",Denton County,"All Housing Authorities within the Dallas, TX HMFA",48,121,76266,650,770,980,1310,1580
"Dallas-Fort Worth-Arlington, TX MSA",Denton County,"All Housing Authorities within the Dallas, TX HMFA",48,121,76272,630,750,950,1270,1530
"Dallas-Fort Worth-Arlington, TX MSA",Ellis County,"All Housing Authorities within the Dallas, TX HMFA",48,139,75101,560,670,850,1130,1370
"Dallas-Fort Worth-Arlington, TX MSA",Ellis County,"All Housing Authorities within the Dallas, TX HMFA",48,139,75119,560,670,850,1130,1370
"Dallas-Fort Worth-Arlington, TX MSA",Ellis County,"All Housing Authorities within the Dallas, TX HMFA",48,139,75125,560,670,850,1130,1370
"Dallas-Fort Worth-Arlington, TX MSA",Ellis County,"All Housing Authorities within the Dallas, TX HMFA",48,139,75152,500,600,760,1010,1220
"Dallas-Fort Worth-Arlington, TX MSA",Ellis County,"All Housing Authorities within the Dallas, TX HMFA",48,139,75154,760,910,1150,1530,1850
"Dallas-Fort Worth-Arlington, TX MSA",Ellis County,"All Housing Authorities within the Dallas, TX HMFA",48,139,75165,610,740,930,1240,1500
"Dallas-Fort Worth-Arlington, TX MSA",Ellis County,"All Housing Authorities within the Dallas, TX HMFA",48,139,75167,760,920,1160,1550,1870
"Dallas-Fort Worth-Arlington, TX MSA",Ellis County,"All Housing Authorities within the Dallas, TX HMFA",48,139,75168,610,730,920,1230,1480
"Dallas-Fort Worth-Arlington, TX MSA",Ellis County,"All Housing Authorities within the Dallas, TX HMFA",48,139,76041,610,730,920,1230,1480
"Dallas-Fort Worth-Arlington, TX MSA",Ellis County,"All Housing Authorities within the Dallas, TX HMFA",48,139,76064,700,840,1060,1410,1710
"Dallas-Fort Worth-Arlington, TX MSA",Ellis County,"All Housing Authorities within the Dallas, TX HMFA",48,139,76065,640,770,970,1290,1560
"Dallas-Fort Worth-Arlington, TX MSA",Ellis County,"All Housing Authorities within the Dallas, TX HMFA",48,139,76084,630,750,950,1270,1530
"Dallas-Fort Worth-Arlington, TX MSA",Ellis County,"All Housing Authorities within the Dallas, TX HMFA",48,139,76623,610,730,920,1230,1480
"Dallas-Fort Worth-Arlington, TX MSA",Ellis County,"All Housing Authorities within the Dallas, TX HMFA",48,139,76651,690,820,1040,1390,1680
"Dallas-Fort Worth-Arlington, TX MSA",Ellis County,"All Housing Authorities within the Dallas, TX HMFA",48,139,76670,490,590,740,990,1190
"Dallas-Fort Worth-Arlington, TX MSA",Hunt County,"All Housing Authorities within the Dallas, TX HMFA",48,231,75135,550,660,840,1120,1350
"Dallas-Fort Worth-Arlington, TX MSA",Hunt County,"All Housing Authorities within the Dallas, TX HMFA",48,231,75160,590,700,890,1190,1430
"Dallas-Fort Worth-Arlington, TX MSA",Hunt County,"All Housing Authorities within the Dallas, TX HMFA",48,231,75169,510,610,770,1030,1240
"Dallas-Fort Worth-Arlington, TX MSA",Hunt County,"All Housing Authorities within the Dallas, TX HMFA",48,231,75189,690,830,1050,1400,1690
"Dallas-Fort Worth-Arlington, TX MSA",Hunt County,"All Housing Authorities within the Dallas, TX HMFA",48,231,75401,500,600,760,1010,1220
"Dallas-Fort Worth-Arlington, TX MSA",Hunt County,"All Housing Authorities within the Dallas, TX HMFA",48,231,75402,520,620,790,1050,1270
"Dallas-Fort Worth-Arlington, TX MSA",Hunt County,"All Housing Authorities within the Dallas, TX HMFA",48,231,75403,500,600,760,1010,1220
"Dallas-Fort Worth-Arlington, TX MSA",Hunt County,"All Housing Authorities within the Dallas, TX HMFA",48,231,75422,530,630,800,1070,1290
"Dallas-Fort Worth-Arlington, TX MSA",Hunt County,"All Housing Authorities within the Dallas, TX HMFA",48,231,75423,530,640,810,1080,1300
"Dallas-Fort Worth-Arlington, TX MSA",Hunt County,"All Housing Authorities within the Dallas, TX HMFA",48,231,75428,420,510,640,850,1030
"Dallas-Fort Worth-Arlington, TX MSA",Hunt County,"All Housing Authorities within the Dallas, TX HMFA",48,231,75442,560,670,850,1130,1370
"Dallas-Fort Worth-Arlington, TX MSA",Hunt County,"All Housing Authorities within the Dallas, TX HMFA",48,231,75449,420,510,640,850,1030
"Dallas-Fort Worth-Arlington, TX MSA",Hunt County,"All Housing Authorities within the Dallas, TX HMFA",48,231,75452,550,660,830,1110,1340
"Dallas-Fort Worth-Arlington, TX MSA",Hunt County,"All Housing Authorities within the Dallas, TX HMFA",48,231,75453,670,810,1020,1360,1640
"Dallas-Fort Worth-Arlington, TX MSA",Hunt County,"All Housing Authorities within the Dallas, TX HMFA",48,231,75474,460,550,700,930,1130
"Dallas-Fort Worth-Arlington, TX MSA",Hunt County,"All Housing Authorities within the Dallas, TX HMFA",48,231,75496,420,510,640,850,1030
"Dallas-Fort Worth-Arlington, TX MSA",Kaufman County,"All Housing Authorities within the Dallas, TX HMFA",48,257,75114,750,900,1140,1520,1840
"Dallas-Fort Worth-Arlington, TX MSA",Kaufman County,"All Housing Authorities within the Dallas, TX HMFA",48,257,75126,910,1090,1380,1840,2220
"Dallas-Fort Worth-Arlington, TX MSA",Kaufman County,"All Housing Authorities within the Dallas, TX HMFA",48,257,75142,550,660,840,1120,1350
"Dallas-Fort Worth-Arlington, TX MSA",Kaufman County,"All Housing Authorities within the Dallas, TX HMFA",48,257,75143,520,620,790,1050,1270
"Dallas-Fort Worth-Arlington, TX MSA",Kaufman County,"All Housing Authorities within the Dallas, TX HMFA",48,257,75147,520,620,790,1050,1270
"Dallas-Fort Worth-Arlington, TX MSA",Kaufman County,"All Housing Authorities within the Dallas, TX HMFA",48,257,75157,450,540,680,910,1100
"Dallas-Fort Worth-Arlington, TX MSA",Kaufman County,"All Housing Authorities within the Dallas, TX HMFA",48,257,75158,530,640,810,1080,1300
"Dallas-Fort Worth-Arlington, TX MSA",Kaufman County,"All Housing Authorities within the Dallas, TX HMFA",48,257,75159,630,750,950,1270,1530
"Dallas-Fort Worth-Arlington, TX MSA",Kaufman County,"All Housing Authorities within the Dallas, TX HMFA",48,257,75160,590,700,890,1190,1430
"Dallas-Fort Worth-Arlington, TX MSA",Kaufman County,"All Housing Authorities within the Dallas, TX HMFA",48,257,75161,590,710,900,1200,1450
"Dallas-Fort Worth-Arlington, TX MSA",Rockwall County,"All Housing Authorities within the Dallas, TX HMFA",48,397,75032,840,1010,1280,1710,2060
"Dallas-Fort Worth-Arlington, TX MSA",Rockwall County,"All Housing Authorities within the Dallas, TX HMFA",48,397,75087,770,930,1170,1560,1880
"Dallas-Fort Worth-Arlington, TX MSA",Rockwall County,"All Housing Authorities within the Dallas, TX HMFA",48,397,75088,880,1050,1330,1770,2140
"Dallas-Fort Worth-Arlington, TX MSA",Rockwall County,"All Housing Authorities within the Dallas, TX HMFA",48,397,75089,910,1090,1380,1840,2220
"Dallas-Fort Worth-Arlington, TX MSA",Rockwall County,"All Housing Authorities within the Dallas, TX HMFA",48,397,75132,800,960,1210,1610,1950
"Dallas-Fort Worth-Arlington, TX MSA",Rockwall County,"All Housing Authorities within the Dallas, TX HMFA",48,397,75189,690,830,1050,1400,1690
"Laredo, TX MSA",Webb County,The Housing Authority of the City of Laredo,48,479,78040,500,540,680,890,920
"Laredo, TX MSA",Webb County,The Housing Authority of the City of Laredo,48,479,78041,610,660,830,1090,1130
"Laredo, TX MSA",Webb County,The Housing Authority of the City of Laredo,48,479,78043,560,600,760,1000,1030
"Laredo, TX MSA",Webb County,The Housing Authority of the City of Laredo,48,479,78045,720,780,980,1290,1330
"Laredo, TX MSA",Webb County,The Housing Authority of the City of Laredo,48,479,78046,550,590,740,970,1010